start=new Date('2022-03-14T00:00:00.000Z').valueOf();
sats=[{"RCS_SIZE":"LARGE","OBJECT_TYPE":"PAYLOAD","OBJECT_ID":"2021-036BE","INCLINATION":"53.0538","COUNTRY_CODE":"US","NORAD_CAT_ID":"48328","MEAN_MOTION_DDOT":"0.0000000000000","DECAY_DATE":null,"BSTAR":"0.00006044700000","REF_FRAME":"TEME","MEAN_ANOMALY":"298.2670","PERIOD":"95.592","MEAN_ELEMENT_THEORY":"SGP4","CENTER_NAME":"EARTH","APOAPSIS":"548.282","GP_ID":"198689378","SEMIMAJOR_AXIS":"6925.320","TLE_LINE1":"1 48328U 21036BE  22072.57802151  .00000619  00000-0  60447-4 0  9990","REV_AT_EPOCH":"4841","ECCENTRICITY":"0.00015840","EPHEMERIS_TYPE":"0","CLASSIFICATION_TYPE":"U","OBJECT_NAME":"STARLINK-2504","MEAN_MOTION_DOT":"0.00000619","MEAN_MOTION":"15.06409343","TIME_SYSTEM":"UTC","ELEMENT_SET_NO":"999","FILE":"3358388","EPOCH":"2022-03-13T13:52:21.058464","SITE":"AFETR","TLE_LINE2":"2 48328  53.0538 162.8437 0001584  61.8479 298.2670 15.06409343 48411","LAUNCH_DATE":"2021-04-29","PERIAPSIS":"546.088","RA_OF_ASC_NODE":"162.8437","ARG_OF_PERICENTER":"61.8479"},{"EPOCH":"2022-03-13T12:11:31.298496","FILE":"3357855","ELEMENT_SET_NO":"999","MEAN_MOTION":"15.06384858","TIME_SYSTEM":"UTC","ARG_OF_PERICENTER":"60.0527","PERIAPSIS":"546.234","RA_OF_ASC_NODE":"163.1681","TLE_LINE2":"2 48329  53.0551 163.1681 0001481  60.0527 300.0609 15.06384858 48409","SITE":"AFETR","LAUNCH_DATE":"2021-04-29","EPHEMERIS_TYPE":"0","ECCENTRICITY":"0.00014810","OBJECT_NAME":"STARLINK-2510","MEAN_MOTION_DOT":"-0.00003507","CLASSIFICATION_TYPE":"U","APOAPSIS":"548.286","MEAN_ELEMENT_THEORY":"SGP4","CENTER_NAME":"EARTH","BSTAR":"-0.00021672000000","PERIOD":"95.593","MEAN_ANOMALY":"300.0609","REF_FRAME":"TEME","GP_ID":"198649960","SEMIMAJOR_AXIS":"6925.395","TLE_LINE1":"1 48329U 21036BF  22072.50800114 -.00003507  00000-0 -21672-3 0  9998","REV_AT_EPOCH":"4840","OBJECT_ID":"2021-036BF","RCS_SIZE":"LARGE","OBJECT_TYPE":"PAYLOAD","NORAD_CAT_ID":"48329","DECAY_DATE":null,"MEAN_MOTION_DDOT":"0.0000000000000","COUNTRY_CODE":"US","INCLINATION":"53.0551"},{"INCLINATION":"53.0530","COUNTRY_CODE":"US","DECAY_DATE":null,"MEAN_MOTION_DDOT":"0.0000000000000","NORAD_CAT_ID":"48330","RCS_SIZE":"LARGE","OBJECT_TYPE":"PAYLOAD","OBJECT_ID":"2021-036BG","TLE_LINE1":"1 48330U 21036BG  22072.50431010 -.00007058  00000-0 -45557-3 0  9998","REV_AT_EPOCH":"4899","GP_ID":"198663149","SEMIMAJOR_AXIS":"6925.396","REF_FRAME":"TEME","PERIOD":"95.593","MEAN_ANOMALY":"291.4177","BSTAR":"-0.00045557000000","CENTER_NAME":"EARTH","MEAN_ELEMENT_THEORY":"SGP4","APOAPSIS":"548.263","CLASSIFICATION_TYPE":"U","MEAN_MOTION_DOT":"-0.00007058","OBJECT_NAME":"STARLINK-2501","ECCENTRICITY":"0.00014460","EPHEMERIS_TYPE":"0","LAUNCH_DATE":"2021-04-29","SITE":"AFETR","TLE_LINE2":"2 48330  53.0530 163.1852 0001446  68.6966 291.4177 15.06384442 48996","RA_OF_ASC_NODE":"163.1852","PERIAPSIS":"546.260","ARG_OF_PERICENTER":"68.6966","TIME_SYSTEM":"UTC","MEAN_MOTION":"15.06384442","ELEMENT_SET_NO":"999","FILE":"3358216","EPOCH":"2022-03-13T12:06:12.392640"},{"NORAD_CAT_ID":"48331","MEAN_MOTION_DDOT":"0.0000000000000","DECAY_DATE":null,"COUNTRY_CODE":"US","INCLINATION":"53.0562","OBJECT_ID":"2021-036BH","RCS_SIZE":"LARGE","OBJECT_TYPE":"PAYLOAD","GP_ID":"198689131","SEMIMAJOR_AXIS":"6925.402","REV_AT_EPOCH":"4842","TLE_LINE1":"1 48331U 21036BH  22072.63333005 -.00000087  00000-0  13091-4 0  9991","APOAPSIS":"548.237","MEAN_ELEMENT_THEORY":"SGP4","CENTER_NAME":"EARTH","BSTAR":"0.00001309100000","PERIOD":"95.593","MEAN_ANOMALY":"295.8529","REF_FRAME":"TEME","OBJECT_NAME":"STARLINK-2514","MEAN_MOTION_DOT":"-0.00000087","CLASSIFICATION_TYPE":"U","EPHEMERIS_TYPE":"0","ECCENTRICITY":"0.00014000","ARG_OF_PERICENTER":"64.2605","RA_OF_ASC_NODE":"162.6063","PERIAPSIS":"546.298","TLE_LINE2":"2 48331  53.0562 162.6063 0001400  64.2605 295.8529 15.06382452 48428","SITE":"AFETR","LAUNCH_DATE":"2021-04-29","FILE":"3358388","EPOCH":"2022-03-13T15:11:59.716320","ELEMENT_SET_NO":"999","MEAN_MOTION":"15.06382452","TIME_SYSTEM":"UTC"},{"INCLINATION":"53.0525","COUNTRY_CODE":"US","MEAN_MOTION_DDOT":"0.0000000000000","DECAY_DATE":null,"NORAD_CAT_ID":"48332","OBJECT_TYPE":"PAYLOAD","RCS_SIZE":"LARGE","OBJECT_ID":"2021-036BJ","REV_AT_EPOCH":"4840","TLE_LINE1":"1 48332U 21036BJ  22072.49968858 -.00002954  00000-0 -17954-3 0  9993","GP_ID":"198649710","SEMIMAJOR_AXIS":"6925.395","REF_FRAME":"TEME","PERIOD":"95.593","MEAN_ANOMALY":"304.1051","BSTAR":"-0.00017954000000","CENTER_NAME":"EARTH","MEAN_ELEMENT_THEORY":"SGP4","APOAPSIS":"548.324","CLASSIFICATION_TYPE":"U","MEAN_MOTION_DOT":"-0.00002954","OBJECT_NAME":"STARLINK-2511","ECCENTRICITY":"0.00015360","EPHEMERIS_TYPE":"0","LAUNCH_DATE":"2021-04-29","SITE":"AFETR","TLE_LINE2":"2 48332  53.0525 163.1998 0001536  56.0084 304.1051 15.06384836 48401","RA_OF_ASC_NODE":"163.1998","PERIAPSIS":"546.196","ARG_OF_PERICENTER":"56.0084","TIME_SYSTEM":"UTC","MEAN_MOTION":"15.06384836","ELEMENT_SET_NO":"999","EPOCH":"2022-03-13T11:59:33.093312","FILE":"3357855"},{"INCLINATION":"53.0538","COUNTRY_CODE":"US","NORAD_CAT_ID":"48333","MEAN_MOTION_DDOT":"0.0000000000000","DECAY_DATE":null,"RCS_SIZE":"LARGE","OBJECT_TYPE":"PAYLOAD","OBJECT_ID":"2021-036BK","GP_ID":"198688136","SEMIMAJOR_AXIS":"6925.372","REV_AT_EPOCH":"4843","TLE_LINE1":"1 48333U 21036BK  22072.69230645 -.00001627  00000-0 -90373-4 0  9995","BSTAR":"-0.00009037300000","REF_FRAME":"TEME","PERIOD":"95.593","MEAN_ANOMALY":"299.6185","MEAN_ELEMENT_THEORY":"SGP4","CENTER_NAME":"EARTH","APOAPSIS":"548.260","CLASSIFICATION_TYPE":"U","OBJECT_NAME":"STARLINK-2518","MEAN_MOTION_DOT":"-0.00001627","ECCENTRICITY":"0.00014780","EPHEMERIS_TYPE":"0","SITE":"AFETR","TLE_LINE2":"2 48333  53.0538 162.3285 0001478  60.4951 299.6185 15.06392497 48434","LAUNCH_DATE":"2021-04-29","PERIAPSIS":"546.213","RA_OF_ASC_NODE":"162.3285","ARG_OF_PERICENTER":"60.4951","MEAN_MOTION":"15.06392497","TIME_SYSTEM":"UTC","ELEMENT_SET_NO":"999","EPOCH":"2022-03-13T16:36:55.277280","FILE":"3358388"},{"SITE":"AFETR","TLE_LINE2":"2 48334  53.0530 162.3475 0001568  54.3338 305.7797 15.06391846 48434","LAUNCH_DATE":"2021-04-29","PERIAPSIS":"546.153","RA_OF_ASC_NODE":"162.3475","ARG_OF_PERICENTER":"54.3338","MEAN_MOTION":"15.06391846","TIME_SYSTEM":"UTC","ELEMENT_SET_NO":"999","FILE":"3358388","EPOCH":"2022-03-13T16:31:35.880672","CLASSIFICATION_TYPE":"U","OBJECT_NAME":"STARLINK-2470","MEAN_MOTION_DOT":"-0.00003275","ECCENTRICITY":"0.00015680","EPHEMERIS_TYPE":"0","GP_ID":"198687884","SEMIMAJOR_AXIS":"6925.374","TLE_LINE1":"1 48334U 21036BL  22072.68860973 -.00003275  00000-0 -20110-3 0  9990","REV_AT_EPOCH":"4843","BSTAR":"-0.00020110000000","REF_FRAME":"TEME","MEAN_ANOMALY":"305.7797","PERIOD":"95.593","MEAN_ELEMENT_THEORY":"SGP4","CENTER_NAME":"EARTH","APOAPSIS":"548.324","INCLINATION":"53.0530","COUNTRY_CODE":"US","NORAD_CAT_ID":"48334","DECAY_DATE":null,"MEAN_MOTION_DDOT":"0.0000000000000","RCS_SIZE":"LARGE","OBJECT_TYPE":"PAYLOAD","OBJECT_ID":"2021-036BL"},{"OBJECT_ID":"2021-036BM","RCS_SIZE":"LARGE","OBJECT_TYPE":"PAYLOAD","NORAD_CAT_ID":"48335","MEAN_MOTION_DDOT":"0.0000000000000","DECAY_DATE":null,"INCLINATION":"53.0552","COUNTRY_CODE":"US","CENTER_NAME":"EARTH","MEAN_ELEMENT_THEORY":"SGP4","APOAPSIS":"548.093","BSTAR":"0.00007171200000","REF_FRAME":"TEME","MEAN_ANOMALY":"272.4729","PERIOD":"95.592","GP_ID":"198664705","SEMIMAJOR_AXIS":"6925.347","TLE_LINE1":"1 48335U 21036BM  22072.55221992  .00000787  00000-0  71712-4 0  9997","REV_AT_EPOCH":"4900","EPHEMERIS_TYPE":"0","ECCENTRICITY":"0.00012720","OBJECT_NAME":"STARLINK-2441","MEAN_MOTION_DOT":"0.00000787","CLASSIFICATION_TYPE":"U","ELEMENT_SET_NO":"999","EPOCH":"2022-03-13T13:15:11.801088","FILE":"3358278","MEAN_MOTION":"15.06400607","TIME_SYSTEM":"UTC","RA_OF_ASC_NODE":"162.9721","PERIAPSIS":"546.331","ARG_OF_PERICENTER":"87.6405","SITE":"AFETR","TLE_LINE2":"2 48335  53.0552 162.9721 0001272  87.6405 272.4729 15.06400607 49000","LAUNCH_DATE":"2021-04-29"},{"NORAD_CAT_ID":"48353","MEAN_MOTION_DDOT":"0.0000000000000","DECAY_DATE":null,"COUNTRY_CODE":"US","INCLINATION":"53.0543","OBJECT_ID":"2021-038A","OBJECT_TYPE":"PAYLOAD","RCS_SIZE":"LARGE","GP_ID":"198688138","SEMIMAJOR_AXIS":"6925.338","REV_AT_EPOCH":"4742","TLE_LINE1":"1 48353U 21038A   22072.69044816 -.00000532  00000-0 -16830-4 0  9992","APOAPSIS":"548.695","MEAN_ELEMENT_THEORY":"SGP4","CENTER_NAME":"EARTH","BSTAR":"-0.00001683000000","PERIOD":"95.592","MEAN_ANOMALY":"315.5535","REF_FRAME":"TEME","OBJECT_NAME":"STARLINK-2613","MEAN_MOTION_DOT":"-0.00000532","CLASSIFICATION_TYPE":"U","EPHEMERIS_TYPE":"0","ECCENTRICITY":"0.00021550","ARG_OF_PERICENTER":"44.5627","RA_OF_ASC_NODE":"62.3501","PERIAPSIS":"545.711","TLE_LINE2":"2 48353  53.0543  62.3501 0002155  44.5627 315.5535 15.06403458 47423","SITE":"AFETR","LAUNCH_DATE":"2021-05-04","FILE":"3358388","EPOCH":"2022-03-13T16:34:14.721024","ELEMENT_SET_NO":"999","MEAN_MOTION":"15.06403458","TIME_SYSTEM":"UTC"},{"RCS_SIZE":"LARGE","OBJECT_TYPE":"PAYLOAD","OBJECT_ID":"2021-038B","INCLINATION":"53.0563","COUNTRY_CODE":"US","MEAN_MOTION_DDOT":"0.0000000000000","DECAY_DATE":null,"NORAD_CAT_ID":"48354","REF_FRAME":"TEME","PERIOD":"95.591","MEAN_ANOMALY":"303.6382","BSTAR":"0.00013414000000","CENTER_NAME":"EARTH","MEAN_ELEMENT_THEORY":"SGP4","APOAPSIS":"548.341","TLE_LINE1":"1 48354U 21038B   22072.68676076  .00001718  00000-0  13414-3 0  9990","REV_AT_EPOCH":"4742","GP_ID":"198687886","SEMIMAJOR_AXIS":"6925.317","ECCENTRICITY":"0.00016740","EPHEMERIS_TYPE":"0","CLASSIFICATION_TYPE":"U","MEAN_MOTION_DOT":"0.00001718","OBJECT_NAME":"STARLINK-2674","TIME_SYSTEM":"UTC","MEAN_MOTION":"15.06410237","ELEMENT_SET_NO":"999","EPOCH":"2022-03-13T16:28:56.129664","FILE":"3358388","LAUNCH_DATE":"2021-05-04","SITE":"AFETR","TLE_LINE2":"2 48354  53.0563  62.3622 0001674  56.4767 303.6382 15.06410237 47423","PERIAPSIS":"546.023","RA_OF_ASC_NODE":"62.3622","ARG_OF_PERICENTER":"56.4767"}];
